0 SOYUZ-TMA 10M
1 39263U 13054A   13268.89642045 -.05073326  11922-4 -18104-2 0    11
2 39263 051.6704 329.4289 0022353 067.7482 108.5406 16.23456851    09
0 SOYUZ-TMA 10M
1 39263U 13054A   13269.00303314 -.00003454  10922-4  00000+0 0    20
2 39263 051.6854 328.8469 0027246 222.0940 206.3926 15.84722168    17
0 SOYUZ-TMA 10M
1 39263U 13054A   13269.06765877  .00008605  00000-0  15589-3 0    39
2 39263 051.6512 328.4150 0003160 085.0522 350.4865 15.50493763    26
